STARLINK-36428          
1 67362U 26003AE  26017.58336806 -.01737435  85199-3 -44666-2 0  9995
2 67362  42.9980 163.3992 0001352 266.4602 318.3606 15.94425799  2451
SHIJIAN-29B (SJ-29B)    
1 67403U 25315C   26017.81645672 -.00000053  00000+0  00000+0 0  9998
2 67403   3.0165  99.0894 0000899 325.4444  59.7159  1.00271752   188
YAOGAN-50 01            
1 67433U 26006A   26016.17880840  .00000537  00000+0  12658-3 0  9997
2 67433 141.9984 200.7842 0164962 123.7171 237.9391 14.21837795   375
CZ-6A R/B               
1 67434U 26006B   26013.71733058  .00000541  00000+0  30805-4 0  9993
2 67434 142.0438 188.1412 0201725  82.0696 280.2897 14.62247694    24
HULIANWANG DIGUI 18A    
1 67435U 26007A   26016.41566249 -.00000116  00000+0  23935-4 0  9996
2 67435  50.0089 283.4039 0008428 279.5288  80.4659 13.92120172   393
HULIANWANG DIGUI 18B    
1 67436U 26007B   26016.41588649 -.00000116  00000+0  23911-4 0  9999
2 67436  50.0068 283.4030 0007500 267.7404  92.2637 13.92012828   396
HULIANWANG DIGUI 18C    
1 67437U 26007C   26017.77978344 -.00000041  00000+0  82490-4 0  9999
2 67437  50.0031 277.9523 0008176 279.3748  80.6227 13.92053497   586
HULIANWANG DIGUI 18D    
1 67438U 26007D   26016.27251356 -.00000115  00000+0  24401-4 0  9991
2 67438  50.0061 283.9771 0008977 273.1225  86.8647 13.91900226   374
HULIANWANG DIGUI 18E    
1 67439U 26007E   26016.41556999 -.00000030  00000+0  90397-4 0  9992
2 67439  50.0058 283.3997 0006779 272.2362  87.7761 13.92169320   397
HULIANWANG DIGUI 18F    
1 67440U 26007F   26017.63551082 -.00000109  00000+0  29138-4 0  9999
2 67440  50.0118 278.5328 0007624 285.6399  74.3659 13.92298495   561
HULIANWANG DIGUI 18G    
1 67441U 26007G   26017.13300565 -.00000110  00000+0  28851-4 0  9996
2 67441  50.0100 280.5370 0006355 280.0062  80.0121 13.92327491   498
HULIANWANG DIGUI 18H    
1 67442U 26007H   26017.63526058 -.00000221  00000+0 -57427-4 0  9994
2 67442  50.0087 278.5276 0007465 291.9938  68.0169 13.92384228   568
